[{"OBJECT_NAME":"DIWATA-2B","OBJECT_ID":"2018-084H","EPOCH":"2026-03-09T23:44:16.821312","MEAN_MOTION":14.99967379,"ECCENTRICITY":0.00117782,"INCLINATION":98.1039,"RA_OF_ASC_NODE":261.0381,"ARG_OF_PERICENTER":125.8755,"MEAN_ANOMALY":234.3563,"EPHEMERIS_TYPE":0,"CLASSIFICATION_TYPE":"U","NORAD_CAT_ID":43678,"ELEMENT_SET_NO":999,"REV_AT_EPOCH":40134,"BSTAR":0.00041230334,"MEAN_MOTION_DOT":5.066e-5,"MEAN_MOTION_DDOT":0},{"OBJECT_NAME":"STARLINK-34669","OBJECT_ID":"2025-150X","EPOCH":"2026-03-09T13:53:08.837664","MEAN_MOTION":14.98326295,"ECCENTRICITY":0.0004017,"INCLINATION":70.002,"RA_OF_ASC_NODE":134.5952,"ARG_OF_PERICENTER":268.7258,"MEAN_ANOMALY":91.3441,"EPHEMERIS_TYPE":0,"CLASSIFICATION_TYPE":"U","NORAD_CAT_ID":64811,"ELEMENT_SET_NO":999,"REV_AT_EPOCH":3650,"BSTAR":1.7258e-6,"MEAN_MOTION_DOT":-7.3e-7,"MEAN_MOTION_DDOT":0}]
